{"type": "FeatureCollection", "features": [ {"type": "Feature", "properties": {"norad_id": 28649, "name": "IRS-P5 (CARTOSAT-1)", "group": "resource", "lat": 3.2547212039913354, "lon": 18.376602768700398, "alt_km": 598.767042867501, "timestamp": "2025-12-18T15:47:10.876824+00:00", "meta": {"OBJECT_NAME": "IRS-P5 (CARTOSAT-1)", "OBJECT_ID": "2005-017A", "EPOCH": "2025-12-18T07:42:54.971712", "MEAN_MOTION": 14.90423643, "ECCENTRICITY": 8.869e-05, "INCLINATION": 97.5488, "RA_OF_ASC_NODE": 18.4873, "ARG_OF_PERICENTER": 47.1352, "MEAN_ANOMALY": 312.9941, "EPHEMERIS_TYPE": 0, "CLASSIFICATION_TYPE": "U", "NORAD_CAT_ID": 28649, "ELEMENT_SET_NO": 999, "REV_AT_EPOCH": 11687, "BSTAR": 0.00013310517, "MEAN_MOTION_DOT": 1.245e-05, "MEAN_MOTION_DDOT": 0}, "tle": {"line1": "1 28649U 05017A   25352.32146958  .00001245  00000+0  13311-3 0  9990", "line2": "2 28649  97.5488  18.4873 0000886  47.1352 312.9941 14.90423643116875"}}, "geometry": {"type": "Point", "coordinates": [18.376602768700398, 3.2547212039913354]}}, {"type": "Feature", "properties": {"norad_id": 28893, "name": "SINAH 1", "group": "resource", "lat": 25.078110050800383, "lon": -54.87088864711773, "alt_km": 670.6364060289998, "timestamp": "2025-12-18T15:47:10.876835+00:00", "meta": {"OBJECT_NAME": "SINAH 1", "OBJECT_ID": "2005-043D", "EPOCH": "2025-12-18T06:52:55.722720", "MEAN_MOTION": 14.6396848, "ECCENTRICITY": 0.00155678, "INCLINATION": 98.2606, "RA_OF_ASC_NODE": 120.8589, "ARG_OF_PERICENTER": 120.713, "MEAN_ANOMALY": 239.5608, "EPHEMERIS_TYPE": 0, "CLASSIFICATION_TYPE": "U", "NORAD_CAT_ID": 28893, "ELEMENT_SET_NO": 999, "REV_AT_EPOCH": 7405, "BSTAR": 7.815659e-05, "MEAN_MOTION_DOT": 3.61e-06, "MEAN_MOTION_DDOT": 0}, "tle": {"line1": "1 28893U 05043D   25352.28675605  .00000361  00000+0  78157-4 0  9999", "line2": "2 28893  98.2606 120.8589 0015567 120.7130 239.5608 14.63968480 74052"}}, "geometry": {"type": "Point", "coordinates": [-54.87088864711773, 25.078110050800383]}}, {"type": "Feature", "properties": {"norad_id": 29079, "name": "EROS B", "group": "resource", "lat": -61.70701240138707, "lon": -84.34651423026695, "alt_km": 364.89868486185424, "timestamp": "2025-12-18T15:47:10.876846+00:00", "meta": {"OBJECT_NAME": "EROS B", "OBJECT_ID": "2006-014A", "EPOCH": "2025-12-18T07:06:28.865952", "MEAN_MOTION": 15.70010863, "ECCENTRICITY": 0.00031435, "INCLINATION": 97.3463, "RA_OF_ASC_NODE": 109.1416, "ARG_OF_PERICENTER": 310.9662, "MEAN_ANOMALY": 49.1328, "EPHEMERIS_TYPE": 0, "CLASSIFICATION_TYPE": "U", "NORAD_CAT_ID": 29079, "ELEMENT_SET_NO": 999, "REV_AT_EPOCH": 9167, "BSTAR": 0.0013477145, "MEAN_MOTION_DOT": 0.00164609, "MEAN_MOTION_DDOT": 0}, "tle": {"line1": "1 29079U 06014A   25352.29616743  .00164609  00000+0  13477-2 0  9992", "line2": "2 29079  97.3463 109.1416 0003143 310.9662  49.1328 15.70010863 91672"}}, "geometry": {"type": "Point", "coordinates": [-84.34651423026695, -61.70701240138707]}}, {"type": "Feature", "properties": {"norad_id": 29228, "name": "RESURS-DK 1", "group": "resource", "lat": 31.984346864615155, "lon": 99.7401894027858, "alt_km": 530.7567142722119, "timestamp": "2025-12-18T15:47:10.876858+00:00", "meta": {"OBJECT_NAME": "RESURS-DK 1", "OBJECT_ID": "2006-021A", "EPOCH": "2025-12-18T06:06:34.727904", "MEAN_MOTION": 15.121919, "ECCENTRICITY": 0.00068951, "INCLINATION": 69.9337, "RA_OF_ASC_NODE": 87.5863, "ARG_OF_PERICENTER": 254.6917, "MEAN_ANOMALY": 105.3487, "EPHEMERIS_TYPE": 0, "CLASSIFICATION_TYPE": "U", "NORAD_CAT_ID": 29228, "ELEMENT_SET_NO": 999, "REV_AT_EPOCH": 7521, "BSTAR": 0.00013720714, "MEAN_MOTION_DOT": 2.267e-05, "MEAN_MOTION_DDOT": 0}, "tle": {"line1": "1 29228U 06021A   25352.25456861  .00002267  00000+0  13721-3 0  9999", "line2": "2 29228  69.9337  87.5863 0006895 254.6917 105.3487 15.12191900 75213"}}, "geometry": {"type": "Point", "coordinates": [99.7401894027858, 31.984346864615155]}}, {"type": "Feature", "properties": {"norad_id": 29268, "name": "ARIRANG-2 (KOMPSAT-2)", "group": "resource", "lat": 69.53433334543416, "lon": 159.21767424511071, "alt_km": 679.3208741241542, "timestamp": "2025-12-18T15:47:10.876869+00:00", "meta": {"OBJECT_NAME": "ARIRANG-2 (KOMPSAT-2)", "OBJECT_ID": "2006-031A", "EPOCH": "2025-12-18T07:29:42.636192", "MEAN_MOTION": 14.6449851, "ECCENTRICITY": 0.00132622, "INCLINATION": 97.8256, "RA_OF_ASC_NODE": 180.5131, "ARG_OF_PERICENTER": 290.1072, "MEAN_ANOMALY": 120.5996, "EPHEMERIS_TYPE": 0, "CLASSIFICATION_TYPE": "U", "NORAD_CAT_ID": 29268, "ELEMENT_SET_NO": 999, "REV_AT_EPOCH": 3500, "BSTAR": 6.426376e-05, "MEAN_MOTION_DOT": 2.96e-06, "MEAN_MOTION_DDOT": 0}, "tle": {"line1": "1 29268U 06031A   25352.31229903  .00000296  00000+0  64264-4 0  9995", "line2": "2 29268  97.8256 180.5131 0013262 290.1072 120.5996 14.64498510 35002"}}, "geometry": {"type": "Point", "coordinates": [159.21767424511071, 69.53433334543416]}}, {"type": "Feature", "properties": {"norad_id": 29709, "name": "LAPAN-TUBSAT", "group": "resource", "lat": 79.6653437550631, "lon": -145.48326196849362, "alt_km": 596.8272953225369, "timestamp": "2025-12-18T15:47:10.876879+00:00", "meta": {"OBJECT_NAME": "LAPAN-TUBSAT", "OBJECT_ID": "2007-001A", "EPOCH": "2025-12-18T05:39:24.151680", "MEAN_MOTION": 14.85678524, "ECCENTRICITY": 0.00135456, "INCLINATION": 98.1255, "RA_OF_ASC_NODE": 342.5058, "ARG_OF_PERICENTER": 57.6409, "MEAN_ANOMALY": 302.6114, "EPHEMERIS_TYPE": 0, "CLASSIFICATION_TYPE": "U", "NORAD_CAT_ID": 29709, "ELEMENT_SET_NO": 999, "REV_AT_EPOCH": 2428, "BSTAR": 3.2480921e-05, "MEAN_MOTION_DOT": 2.24e-06, "MEAN_MOTION_DDOT": 0}, "tle": {"line1": "1 29709U 07001A   25352.23569620  .00000224  00000+0  32481-4 0  9994", "line2": "2 29709  98.1255 342.5058 0013545  57.6409 302.6114 14.85678524 24288"}}, "geometry": {"type": "Point", "coordinates": [-145.48326196849362, 79.6653437550631]}}, {"type": "Feature", "properties": {"norad_id": 31113, "name": "HAIYANG-1B", "group": "resource", "lat": -75.03506612780602, "lon": 123.44443177614541, "alt_km": 801.3698970803771, "timestamp": "2025-12-18T15:47:10.876890+00:00", "meta": {"OBJECT_NAME": "HAIYANG-1B", "OBJECT_ID": "2007-010A", "EPOCH": "2025-12-17T21:48:16.917696", "MEAN_MOTION": 14.3096685, "ECCENTRICITY": 0.00140197, "INCLINATION": 98.3317, "RA_OF_ASC_NODE": 335.9732, "ARG_OF_PERICENTER": 23.3851, "MEAN_ANOMALY": 336.7967, "EPHEMERIS_TYPE": 0, "CLASSIFICATION_TYPE": "U", "NORAD_CAT_ID": 31113, "ELEMENT_SET_NO": 999, "REV_AT_EPOCH": 97470, "BSTAR": 5.3781568e-05, "MEAN_MOTION_DOT": 1e-06, "MEAN_MOTION_DDOT": 0}, "tle": {"line1": "1 31113U 07010A   25351.90852914  .00000100  00000+0  53782-4 0  9990", "line2": "2 31113  98.3317 335.9732 0014019  23.3851 336.7967 14.30966850974701"}}, "geometry": {"type": "Point", "coordinates": [123.44443177614541, -75.03506612780602]}}, {"type": "Feature", "properties": {"norad_id": 31598, "name": "COSMO-SKYMED 1", "group": "resource", "lat": -81.6887527747469, "lon": -73.43780481484148, "alt_km": 588.3038197273254, "timestamp": "2025-12-18T15:47:10.876901+00:00", "meta": {"OBJECT_NAME": "COSMO-SKYMED 1", "OBJECT_ID": "2007-023A", "EPOCH": "2025-12-18T06:34:02.033760", "MEAN_MOTION": 14.95808345, "ECCENTRICITY": 0.00015698, "INCLINATION": 97.8835, "RA_OF_ASC_NODE": 177.709, "ARG_OF_PERICENTER": 87.1417, "MEAN_ANOMALY": 272.9983, "EPHEMERIS_TYPE": 0, "CLASSIFICATION_TYPE": "U", "NORAD_CAT_ID": 31598, "ELEMENT_SET_NO": 999, "REV_AT_EPOCH": 273, "BSTAR": 0.00033191182, "MEAN_MOTION_DOT": 3.646e-05, "MEAN_MOTION_DDOT": 0}, "tle": {"line1": "1 31598U 07023A   25352.27363465  .00003646  00000+0  33191-3 0  9999", "line2": "2 31598  97.8835 177.7090 0001569  87.1417 272.9983 14.95808345  2737"}}, "geometry": {"type": "Point", "coordinates": [-73.43780481484148, -81.6887527747469]}}, {"type": "Feature", "properties": {"norad_id": 31698, "name": "TERRASAR-X", "group": "resource", "lat": 59.111364262240436, "lon": -14.675018753988095, "alt_km": 501.5953348597259, "timestamp": "2025-12-18T15:47:10.876912+00:00", "meta": {"OBJECT_NAME": "TERRASAR-X", "OBJECT_ID": "2007-026A", "EPOCH": "2025-12-17T14:13:48.329472", "MEAN_MOTION": 15.19149756, "ECCENTRICITY": 0.00018426, "INCLINATION": 97.4455, "RA_OF_ASC_NODE": 356.9029, "ARG_OF_PERICENTER": 91.3746, "MEAN_ANOMALY": 268.77, "EPHEMERIS_TYPE": 0, "CLASSIFICATION_TYPE": "U", "NORAD_CAT_ID": 31698, "ELEMENT_SET_NO": 999, "REV_AT_EPOCH": 2565, "BSTAR": 4.5889707e-05, "MEAN_MOTION_DOT": 8.97e-06, "MEAN_MOTION_DDOT": 0}, "tle": {"line1": "1 31698U 07026A   25351.59292048  .00000897  00000+0  45890-4 0  9990", "line2": "2 31698  97.4455 356.9029 0001842  91.3746 268.7700 15.19149756 25658"}}, "geometry": {"type": "Point", "coordinates": [-14.675018753988095, 59.111364262240436]}}, {"type": "Feature", "properties": {"norad_id": 32060, "name": "WORLDVIEW-1 (WV-1)", "group": "resource", "lat": -0.3538108587443424, "lon": -69.99032124266326, "alt_km": 494.30436617254327, "timestamp": "2025-12-18T15:47:10.876923+00:00", "meta": {"OBJECT_NAME": "WORLDVIEW-1 (WV-1)", "OBJECT_ID": "2007-041A", "EPOCH": "2025-12-18T07:07:24.333888", "MEAN_MOTION": 15.24779912, "ECCENTRICITY": 9.076e-05, "INCLINATION": 97.3839, "RA_OF_ASC_NODE": 109.6997, "ARG_OF_PERICENTER": 117.1152, "MEAN_ANOMALY": 243.0178, "EPHEMERIS_TYPE": 0, "CLASSIFICATION_TYPE": "U", "NORAD_CAT_ID": 32060, "ELEMENT_SET_NO": 999, "REV_AT_EPOCH": 1532, "BSTAR": 0.00030222175, "MEAN_MOTION_DOT": 7.422e-05, "MEAN_MOTION_DDOT": 0}, "tle": {"line1": "1 32060U 07041A   25352.29680942  .00007422  00000+0  30222-3 0  9996", "line2": "2 32060  97.3839 109.6997 0000907 117.1152 243.0178 15.24779912 15320"}}, "geometry": {"type": "Point", "coordinates": [-69.99032124266326, -0.3538108587443424]}}]}